{"fetched_at":"2026-03-29T16:36:15Z","count":15609,"tles":[{"name":"STARLINK-6125","line1":"1 57114U 23090P   26087.50416058  .00006895  00000+0  52420-3 0  9997","line2":"2 57114  43.0012 172.4054 0001249 274.6409  85.4291 15.02593092153241","category":"Starlink"}]}